LEMUR-2-PETERG          
1 42841U 17042S   26068.48235713  .00023240  00000+0  81076-3 0  9993
2 42841  97.3980 253.6596 0003700 341.6938  18.4169 15.29611459473171
STARLINK-31616          
1 59270U 24050S   26068.61263666  .00001672  00000+0  68608-4 0  9999
2 59270  53.1608 181.5703 0001085 125.2346 234.8757 15.30178062110539
